start=new Date('2022-11-12T00:00:00.000Z').valueOf();
sats=[{"REV_AT_EPOCH":"12608","TLE_LINE2":"2 46054  53.0524 165.6353 0001271  97.6122 262.5011 15.06402883126088","MEAN_MOTION_DOT":"0.00009414","LAUNCH_DATE":"2020-08-07","APOAPSIS":"548.085","SITE":"AFETR","OBJECT_ID":"2020-055AD","ARG_OF_PERICENTER":"97.6122","OBJECT_TYPE":"PAYLOAD","CLASSIFICATION_TYPE":"U","REF_FRAME":"TEME","EPOCH":"2022-11-11T21:07:11.788320","SEMIMAJOR_AXIS":"6925.340","MEAN_MOTION_DDOT":"0.0000000000000","INCLINATION":"53.0524","DECAY_DATE":null,"COUNTRY_CODE":"US","NORAD_CAT_ID":"46054","GP_ID":"217489323","FILE":"3651775","BSTAR":"0.00065002000000","PERIAPSIS":"546.325","MEAN_MOTION":"15.06402883","TIME_SYSTEM":"UTC","TLE_LINE1":"1 46054U 20055AD  22315.87999755  .00009414  00000-0  65002-3 0  9997","MEAN_ELEMENT_THEORY":"SGP4","OBJECT_NAME":"STARLINK-1548","RA_OF_ASC_NODE":"165.6353","ECCENTRICITY":"0.00012710","RCS_SIZE":"LARGE","EPHEMERIS_TYPE":"0","CENTER_NAME":"EARTH","MEAN_ANOMALY":"262.5011","PERIOD":"95.592","ELEMENT_SET_NO":"999"},{"BSTAR":"0.00108100000000","FILE":"3651775","MEAN_MOTION":"15.06421080","PERIAPSIS":"546.140","TIME_SYSTEM":"UTC","DECAY_DATE":null,"INCLINATION":"53.0516","COUNTRY_CODE":"US","NORAD_CAT_ID":"46055","GP_ID":"217490041","CENTER_NAME":"EARTH","EPHEMERIS_TYPE":"0","MEAN_ANOMALY":"279.4741","PERIOD":"95.591","ELEMENT_SET_NO":"999","MEAN_ELEMENT_THEORY":"SGP4","TLE_LINE1":"1 46055U 20055AE  22315.86524643  .00015866  00000-0  10810-2 0  9991","OBJECT_NAME":"STARLINK-1554","RA_OF_ASC_NODE":"165.6797","ECCENTRICITY":"0.00014570","RCS_SIZE":"LARGE","MEAN_MOTION_DOT":"0.00015866","LAUNCH_DATE":"2020-08-07","REV_AT_EPOCH":"12608","TLE_LINE2":"2 46055  53.0516 165.6797 0001457  80.6412 279.4741 15.06421080126089","CLASSIFICATION_TYPE":"U","REF_FRAME":"TEME","EPOCH":"2022-11-11T20:45:57.291552","SEMIMAJOR_AXIS":"6925.284","MEAN_MOTION_DDOT":"0.0000000000000","APOAPSIS":"548.158","SITE":"AFETR","OBJECT_ID":"2020-055AE","ARG_OF_PERICENTER":"80.6412","OBJECT_TYPE":"PAYLOAD"},{"MEAN_ELEMENT_THEORY":"SGP4","TLE_LINE1":"1 46056U 20055AF  22315.88642150  .00008588  00000-0  59472-3 0  9999","OBJECT_NAME":"STARLINK-1561","ECCENTRICITY":"0.00019530","RA_OF_ASC_NODE":"165.5939","RCS_SIZE":"LARGE","EPHEMERIS_TYPE":"0","CENTER_NAME":"EARTH","MEAN_ANOMALY":"301.6703","PERIOD":"95.592","ELEMENT_SET_NO":"999","INCLINATION":"53.0531","DECAY_DATE":null,"COUNTRY_CODE":"US","NORAD_CAT_ID":"46056","GP_ID":"217488822","BSTAR":"0.00059472000000","FILE":"3651775","TIME_SYSTEM":"UTC","PERIAPSIS":"545.853","MEAN_MOTION":"15.06402645","APOAPSIS":"548.558","SITE":"AFETR","OBJECT_ID":"2020-055AF","ARG_OF_PERICENTER":"58.4477","OBJECT_TYPE":"PAYLOAD","CLASSIFICATION_TYPE":"U","REF_FRAME":"TEME","EPOCH":"2022-11-11T21:16:26.817600","SEMIMAJOR_AXIS":"6925.340","MEAN_MOTION_DDOT":"0.0000000000000","REV_AT_EPOCH":"12609","TLE_LINE2":"2 46056  53.0531 165.5939 0001953  58.4477 301.6703 15.06402645126092","MEAN_MOTION_DOT":"0.00008588","LAUNCH_DATE":"2020-08-07"},{"MEAN_MOTION_DDOT":"0.0000000000000","SEMIMAJOR_AXIS":"6925.336","EPOCH":"2022-11-11T21:33:45.475200","REF_FRAME":"TEME","CLASSIFICATION_TYPE":"U","OBJECT_TYPE":"PAYLOAD","OBJECT_ID":"2020-055AH","ARG_OF_PERICENTER":"84.2599","SITE":"AFETR","APOAPSIS":"548.303","LAUNCH_DATE":"2020-08-07","MEAN_MOTION_DOT":"0.00011677","TLE_LINE2":"2 46058  53.0533 165.5418 0001591  84.2599 275.8571 15.06404181126089","REV_AT_EPOCH":"12608","ELEMENT_SET_NO":"999","PERIOD":"95.592","MEAN_ANOMALY":"275.8571","EPHEMERIS_TYPE":"0","CENTER_NAME":"EARTH","RCS_SIZE":"LARGE","RA_OF_ASC_NODE":"165.5418","ECCENTRICITY":"0.00015910","OBJECT_NAME":"STARLINK-1564","MEAN_ELEMENT_THEORY":"SGP4","TLE_LINE1":"1 46058U 20055AH  22315.89844300  .00011677  00000-0  80140-3 0  9992","PERIAPSIS":"546.099","MEAN_MOTION":"15.06404181","TIME_SYSTEM":"UTC","BSTAR":"0.00080140000000","FILE":"3651775","GP_ID":"217489067","NORAD_CAT_ID":"46058","COUNTRY_CODE":"US","INCLINATION":"53.0533","DECAY_DATE":null},{"BSTAR":"0.00126080000000","FILE":"3651775","TIME_SYSTEM":"UTC","PERIAPSIS":"546.290","MEAN_MOTION":"15.06414898","COUNTRY_CODE":"US","INCLINATION":"53.0520","DECAY_DATE":null,"NORAD_CAT_ID":"46059","GP_ID":"217489823","CENTER_NAME":"EARTH","EPHEMERIS_TYPE":"0","ELEMENT_SET_NO":"999","MEAN_ANOMALY":"279.7791","PERIOD":"95.591","OBJECT_NAME":"STARLINK-1570","MEAN_ELEMENT_THEORY":"SGP4","TLE_LINE1":"1 46059U 20055AJ  22315.83945063  .00018555  00000-0  12608-2 0  9990","RCS_SIZE":"LARGE","ECCENTRICITY":"0.00012670","RA_OF_ASC_NODE":"165.8133","LAUNCH_DATE":"2020-08-07","MEAN_MOTION_DOT":"0.00018555","REV_AT_EPOCH":"12603","TLE_LINE2":"2 46059  53.0520 165.8133 0001267  80.3341 279.7791 15.06414898126033","REF_FRAME":"TEME","CLASSIFICATION_TYPE":"U","SEMIMAJOR_AXIS":"6925.303","MEAN_MOTION_DDOT":"0.0000000000000","EPOCH":"2022-11-11T20:08:48.534432","SITE":"AFETR","APOAPSIS":"548.045","OBJECT_ID":"2020-055AJ","ARG_OF_PERICENTER":"80.3341","OBJECT_TYPE":"PAYLOAD"},{"OBJECT_NAME":"STARLINK-1572","TLE_LINE1":"1 46060U 20055AK  22315.90211787  .00007930  00000-0  55079-3 0  9994","MEAN_ELEMENT_THEORY":"SGP4","RCS_SIZE":"LARGE","ECCENTRICITY":"0.00015940","RA_OF_ASC_NODE":"165.5304","CENTER_NAME":"EARTH","EPHEMERIS_TYPE":"0","ELEMENT_SET_NO":"999","MEAN_ANOMALY":"270.1525","PERIOD":"95.593","COUNTRY_CODE":"US","INCLINATION":"53.0526","DECAY_DATE":null,"NORAD_CAT_ID":"46060","GP_ID":"217489542","FILE":"3651775","BSTAR":"0.00055079000000","TIME_SYSTEM":"UTC","PERIAPSIS":"546.135","MEAN_MOTION":"15.06391775","SITE":"AFETR","APOAPSIS":"548.343","ARG_OF_PERICENTER":"89.9647","OBJECT_ID":"2020-055AK","OBJECT_TYPE":"PAYLOAD","REF_FRAME":"TEME","CLASSIFICATION_TYPE":"U","SEMIMAJOR_AXIS":"6925.374","MEAN_MOTION_DDOT":"0.0000000000000","EPOCH":"2022-11-11T21:39:02.983968","REV_AT_EPOCH":"12605","TLE_LINE2":"2 46060  53.0526 165.5304 0001594  89.9647 270.1525 15.06391775126055","LAUNCH_DATE":"2020-08-07","MEAN_MOTION_DOT":"0.00007930"},{"REV_AT_EPOCH":"12608","TLE_LINE2":"2 46061  53.0547 165.5690 0001392  71.9197 288.1943 15.06379366126082","MEAN_MOTION_DOT":"-0.00000602","LAUNCH_DATE":"2020-08-07","APOAPSIS":"548.241","SITE":"AFETR","OBJECT_TYPE":"PAYLOAD","ARG_OF_PERICENTER":"71.9197","OBJECT_ID":"2020-055AL","CLASSIFICATION_TYPE":"U","REF_FRAME":"TEME","EPOCH":"2022-11-11T21:28:25.763232","MEAN_MOTION_DDOT":"0.0000000000000","SEMIMAJOR_AXIS":"6925.412","DECAY_DATE":null,"INCLINATION":"53.0547","COUNTRY_CODE":"US","GP_ID":"217488324","NORAD_CAT_ID":"46061","FILE":"3651775","BSTAR":"-0.00002156800000","TIME_SYSTEM":"UTC","PERIAPSIS":"546.313","MEAN_MOTION":"15.06379366","MEAN_ELEMENT_THEORY":"SGP4","TLE_LINE1":"1 46061U 20055AL  22315.89474263 -.00000602  00000-0 -21568-4 0  9991","OBJECT_NAME":"STARLINK-1573","ECCENTRICITY":"0.00013920","RA_OF_ASC_NODE":"165.5690","RCS_SIZE":"LARGE","EPHEMERIS_TYPE":"0","CENTER_NAME":"EARTH","PERIOD":"95.593","MEAN_ANOMALY":"288.1943","ELEMENT_SET_NO":"999"},{"MEAN_MOTION_DOT":"0.00007116","LAUNCH_DATE":"2020-08-07","REV_AT_EPOCH":"12604","TLE_LINE2":"2 46062  53.0525 165.6957 0001723  60.6471 299.4690 15.06409287126040","CLASSIFICATION_TYPE":"U","REF_FRAME":"TEME","EPOCH":"2022-11-11T20:40:38.681184","MEAN_MOTION_DDOT":"0.0000000000000","SEMIMAJOR_AXIS":"6925.320","APOAPSIS":"548.378","SITE":"AFETR","OBJECT_TYPE":"PAYLOAD","ARG_OF_PERICENTER":"60.6471","OBJECT_ID":"2020-055AM","FILE":"3651775","BSTAR":"0.00049601000000","TIME_SYSTEM":"UTC","PERIAPSIS":"545.992","MEAN_MOTION":"15.06409287","INCLINATION":"53.0525","DECAY_DATE":null,"COUNTRY_CODE":"US","GP_ID":"217488570","NORAD_CAT_ID":"46062","EPHEMERIS_TYPE":"0","CENTER_NAME":"EARTH","PERIOD":"95.592","MEAN_ANOMALY":"299.4690","ELEMENT_SET_NO":"999","TLE_LINE1":"1 46062U 20055AM  22315.86155881  .00007116  00000-0  49601-3 0  9993","MEAN_ELEMENT_THEORY":"SGP4","OBJECT_NAME":"STARLINK-1574","ECCENTRICITY":"0.00017230","RA_OF_ASC_NODE":"165.6957","RCS_SIZE":"LARGE"},{"EPHEMERIS_TYPE":"0","CENTER_NAME":"EARTH","ELEMENT_SET_NO":"999","MEAN_ANOMALY":"280.2424","PERIOD":"95.593","OBJECT_NAME":"STARLINK-1577","MEAN_ELEMENT_THEORY":"SGP4","TLE_LINE1":"1 46063U 20055AN  22315.85787680  .00002835  00000-0  20917-3 0  9993","RCS_SIZE":"LARGE","RA_OF_ASC_NODE":"165.7263","ECCENTRICITY":"0.00014080","BSTAR":"0.00020917000000","FILE":"3651775","TIME_SYSTEM":"UTC","PERIAPSIS":"546.267","MEAN_MOTION":"15.06390740","COUNTRY_CODE":"US","INCLINATION":"53.0526","DECAY_DATE":null,"NORAD_CAT_ID":"46063","GP_ID":"217489324","REF_FRAME":"TEME","CLASSIFICATION_TYPE":"U","SEMIMAJOR_AXIS":"6925.377","MEAN_MOTION_DDOT":"0.0000000000000","EPOCH":"2022-11-11T20:35:20.555520","SITE":"AFETR","APOAPSIS":"548.217","ARG_OF_PERICENTER":"79.8723","OBJECT_ID":"2020-055AN","OBJECT_TYPE":"PAYLOAD","LAUNCH_DATE":"2020-08-07","MEAN_MOTION_DOT":"0.00002835","REV_AT_EPOCH":"12607","TLE_LINE2":"2 46063  53.0526 165.7263 0001408  79.8723 280.2424 15.06390740126074"},{"DECAY_DATE":null,"INCLINATION":"53.0549","COUNTRY_CODE":"US","GP_ID":"217490042","NORAD_CAT_ID":"46064","BSTAR":"-0.00005864200000","FILE":"3651775","PERIAPSIS":"546.293","TIME_SYSTEM":"UTC","MEAN_MOTION":"15.06387429","TLE_LINE1":"1 46064U 20055AP  22315.89105361 -.00001154  00000-0 -58642-4 0  9990","MEAN_ELEMENT_THEORY":"SGP4","OBJECT_NAME":"STARLINK-1583","RA_OF_ASC_NODE":"165.5770","ECCENTRICITY":"0.00013850","RCS_SIZE":"LARGE","EPHEMERIS_TYPE":"0","CENTER_NAME":"EARTH","PERIOD":"95.593","MEAN_ANOMALY":"283.7262","ELEMENT_SET_NO":"999","REV_AT_EPOCH":"12608","TLE_LINE2":"2 46064  53.0549 165.5770 0001385  76.3881 283.7262 15.06387429126081","MEAN_MOTION_DOT":"-0.00001154","LAUNCH_DATE":"2020-08-07","APOAPSIS":"548.211","SITE":"AFETR","OBJECT_TYPE":"PAYLOAD","ARG_OF_PERICENTER":"76.3881","OBJECT_ID":"2020-055AP","CLASSIFICATION_TYPE":"U","REF_FRAME":"TEME","EPOCH":"2022-11-11T21:23:07.031904","MEAN_MOTION_DDOT":"0.0000000000000","SEMIMAJOR_AXIS":"6925.387"}];
